CCSDS_OMM_VERS = 2.0
CREATION_DATE  = 
ORIGINATOR     = 

OBJECT_NAME    = CENTISPACE-1 OBJECT G
OBJECT_ID      = 2026-060G
CENTER_NAME    = EARTH
REF_FRAME      = TEME
TIME_SYSTEM    = UTC
MEAN_ELEMENT_THEORY = SGP/SGP4

EPOCH          = 2026-04-01T12:41:34.407744
MEAN_MOTION    = 14.75310233
ECCENTRICITY   = .0014142
INCLINATION    = 54.9869
RA_OF_ASC_NODE = 348.4290
ARG_OF_PERICENTER = 323.9362
MEAN_ANOMALY   = 36.0682

EPHEMERIS_TYPE = 0
CLASSIFICATION_TYPE = U
NORAD_CAT_ID   = 68356
ELEMENT_SET_NO = 999
REV_AT_EPOCH   = 146
BSTAR          = .35408E-4
MEAN_MOTION_DOT = .31E-6
MEAN_MOTION_DDOT = 0

CCSDS_OMM_VERS = 2.0
CREATION_DATE  = 
ORIGINATOR     = 

OBJECT_NAME    = CENTISPACE-1 OBJECT H
OBJECT_ID      = 2026-060H
CENTER_NAME    = EARTH
REF_FRAME      = TEME
TIME_SYSTEM    = UTC
MEAN_ELEMENT_THEORY = SGP/SGP4

EPOCH          = 2026-03-31T12:17:09.150144
MEAN_MOTION    = 14.75426695
ECCENTRICITY   = .0014896
INCLINATION    = 54.9825
RA_OF_ASC_NODE = 352.5691
ARG_OF_PERICENTER = 321.7973
MEAN_ANOMALY   = 38.1970

EPHEMERIS_TYPE = 0
CLASSIFICATION_TYPE = U
NORAD_CAT_ID   = 68357
ELEMENT_SET_NO = 999
REV_AT_EPOCH   = 131
BSTAR          = .33642377E-3
MEAN_MOTION_DOT = .2097E-4
MEAN_MOTION_DDOT = 0

CCSDS_OMM_VERS = 2.0
CREATION_DATE  = 
ORIGINATOR     = 

OBJECT_NAME    = CENTISPACE-1 OBJECT J
OBJECT_ID      = 2026-060J
CENTER_NAME    = EARTH
REF_FRAME      = TEME
TIME_SYSTEM    = UTC
MEAN_ELEMENT_THEORY = SGP/SGP4

EPOCH          = 2026-03-31T22:02:32.676000
MEAN_MOTION    = 14.75410591
ECCENTRICITY   = .00147259
INCLINATION    = 54.9876
RA_OF_ASC_NODE = 350.9118
ARG_OF_PERICENTER = 324.9275
MEAN_ANOMALY   = 35.0754

EPHEMERIS_TYPE = 0
CLASSIFICATION_TYPE = U
NORAD_CAT_ID   = 68358
ELEMENT_SET_NO = 999
REV_AT_EPOCH   = 137
BSTAR          = .44082868E-4
MEAN_MOTION_DOT = .91E-6
MEAN_MOTION_DDOT = 0

CCSDS_OMM_VERS = 2.0
CREATION_DATE  = 
ORIGINATOR     = 

OBJECT_NAME    = CENTISPACE-1 OBJECT K
OBJECT_ID      = 2026-060K
CENTER_NAME    = EARTH
REF_FRAME      = TEME
TIME_SYSTEM    = UTC
MEAN_ELEMENT_THEORY = SGP/SGP4

EPOCH          = 2026-04-01T12:39:50.472000
MEAN_MOTION    = 14.75492843
ECCENTRICITY   = .0015026
INCLINATION    = 54.9772
RA_OF_ASC_NODE = 348.4199
ARG_OF_PERICENTER = 326.0321
MEAN_ANOMALY   = 33.9715

EPHEMERIS_TYPE = 0
CLASSIFICATION_TYPE = U
NORAD_CAT_ID   = 68359
ELEMENT_SET_NO = 999
REV_AT_EPOCH   = 146
BSTAR          = .35782E-4
MEAN_MOTION_DOT = .34E-6
MEAN_MOTION_DDOT = 0

CCSDS_OMM_VERS = 2.0
CREATION_DATE  = 
ORIGINATOR     = 

OBJECT_NAME    = RASSVET-3 OBJECT A
OBJECT_ID      = 2026-061A
CENTER_NAME    = EARTH
REF_FRAME      = TEME
TIME_SYSTEM    = UTC
MEAN_ELEMENT_THEORY = SGP/SGP4

EPOCH          = 2026-03-31T15:46:09.658272
MEAN_MOTION    = 15.89002217
ECCENTRICITY   = .0026761
INCLINATION    = 82.2962
RA_OF_ASC_NODE = 99.7107
ARG_OF_PERICENTER = 45.1037
MEAN_ANOMALY   = 315.2400

EPHEMERIS_TYPE = 0
CLASSIFICATION_TYPE = U
NORAD_CAT_ID   = 68360
ELEMENT_SET_NO = 999
REV_AT_EPOCH   = 126
BSTAR          = .43734E-3
MEAN_MOTION_DOT = .127932E-2
MEAN_MOTION_DDOT = .45424E-5

CCSDS_OMM_VERS = 2.0
CREATION_DATE  = 
ORIGINATOR     = 

OBJECT_NAME    = RASSVET-3 OBJECT B
OBJECT_ID      = 2026-061B
CENTER_NAME    = EARTH
REF_FRAME      = TEME
TIME_SYSTEM    = UTC
MEAN_ELEMENT_THEORY = SGP/SGP4

EPOCH          = 2026-03-31T15:47:00.561696
MEAN_MOTION    = 15.88526069
ECCENTRICITY   = .0027321
INCLINATION    = 82.2971
RA_OF_ASC_NODE = 99.7121
ARG_OF_PERICENTER = 44.8164
MEAN_ANOMALY   = 315.5307

EPHEMERIS_TYPE = 0
CLASSIFICATION_TYPE = U
NORAD_CAT_ID   = 68361
ELEMENT_SET_NO = 999
REV_AT_EPOCH   = 126
BSTAR          = .23031E-3
MEAN_MOTION_DOT = .66037E-3
MEAN_MOTION_DDOT = .36253E-6

CCSDS_OMM_VERS = 2.0
CREATION_DATE  = 
ORIGINATOR     = 

OBJECT_NAME    = RASSVET-3 OBJECT C
OBJECT_ID      = 2026-061C
CENTER_NAME    = EARTH
REF_FRAME      = TEME
TIME_SYSTEM    = UTC
MEAN_ELEMENT_THEORY = SGP/SGP4

EPOCH          = 2026-03-31T15:46:50.210112
MEAN_MOTION    = 15.88549972
ECCENTRICITY   = .0027163
INCLINATION    = 82.2970
RA_OF_ASC_NODE = 99.7116
ARG_OF_PERICENTER = 44.7138
MEAN_ANOMALY   = 315.6316

EPHEMERIS_TYPE = 0
CLASSIFICATION_TYPE = U
NORAD_CAT_ID   = 68362
ELEMENT_SET_NO = 999
REV_AT_EPOCH   = 126
BSTAR          = .21986E-3
MEAN_MOTION_DOT = .63107E-3
MEAN_MOTION_DDOT = .23369E-6

CCSDS_OMM_VERS = 2.0
CREATION_DATE  = 
ORIGINATOR     = 

OBJECT_NAME    = RASSVET-3 OBJECT D
OBJECT_ID      = 2026-061D
CENTER_NAME    = EARTH
REF_FRAME      = TEME
TIME_SYSTEM    = UTC
MEAN_ELEMENT_THEORY = SGP/SGP4

EPOCH          = 2026-03-31T15:46:40.237824
MEAN_MOTION    = 15.88567095
ECCENTRICITY   = .002719
INCLINATION    = 82.2971
RA_OF_ASC_NODE = 99.7117
ARG_OF_PERICENTER = 44.5884
MEAN_ANOMALY   = 315.7567

EPHEMERIS_TYPE = 0
CLASSIFICATION_TYPE = U
NORAD_CAT_ID   = 68363
ELEMENT_SET_NO = 999
REV_AT_EPOCH   = 126
BSTAR          = .21556E-3
MEAN_MOTION_DOT = .61936E-3
MEAN_MOTION_DDOT = .18393E-6

CCSDS_OMM_VERS = 2.0
CREATION_DATE  = 
ORIGINATOR     = 

OBJECT_NAME    = RASSVET-3 OBJECT E
OBJECT_ID      = 2026-061E
CENTER_NAME    = EARTH
REF_FRAME      = TEME
TIME_SYSTEM    = UTC
MEAN_ELEMENT_THEORY = SGP/SGP4

EPOCH          = 2026-03-31T15:46:33.024288
MEAN_MOTION    = 15.88592069
ECCENTRICITY   = .0027131
INCLINATION    = 82.2970
RA_OF_ASC_NODE = 99.7112
ARG_OF_PERICENTER = 44.6670
MEAN_ANOMALY   = 315.6779

EPHEMERIS_TYPE = 0
CLASSIFICATION_TYPE = U
NORAD_CAT_ID   = 68364
ELEMENT_SET_NO = 999
REV_AT_EPOCH   = 126
BSTAR          = .2303E-3
MEAN_MOTION_DOT = .6622E-3
MEAN_MOTION_DDOT = .37193E-6

CCSDS_OMM_VERS = 2.0
CREATION_DATE  = 
ORIGINATOR     = 

OBJECT_NAME    = RASSVET-3 OBJECT F
OBJECT_ID      = 2026-061F
CENTER_NAME    = EARTH
REF_FRAME      = TEME
TIME_SYSTEM    = UTC
MEAN_ELEMENT_THEORY = SGP/SGP4

EPOCH          = 2026-03-31T15:46:21.239328
MEAN_MOTION    = 15.88687592
ECCENTRICITY   = .0026941
INCLINATION    = 82.2971
RA_OF_ASC_NODE = 99.7112
ARG_OF_PERICENTER = 44.7847
MEAN_ANOMALY   = 315.5592

EPHEMERIS_TYPE = 0
CLASSIFICATION_TYPE = U
NORAD_CAT_ID   = 68365
ELEMENT_SET_NO = 999
REV_AT_EPOCH   = 126
BSTAR          = .26705E-3
MEAN_MOTION_DOT = .77066E-3
MEAN_MOTION_DDOT = .9066E-6

CCSDS_OMM_VERS = 2.0
CREATION_DATE  = 
ORIGINATOR     = 

OBJECT_NAME    = RASSVET-3 OBJECT G
OBJECT_ID      = 2026-061G
CENTER_NAME    = EARTH
REF_FRAME      = TEME
TIME_SYSTEM    = UTC
MEAN_ELEMENT_THEORY = SGP/SGP4

EPOCH          = 2026-03-31T15:46:19.613280
MEAN_MOTION    = 15.88611878
ECCENTRICITY   = .0026925
INCLINATION    = 82.2970
RA_OF_ASC_NODE = 99.7112
ARG_OF_PERICENTER = 44.6743
MEAN_ANOMALY   = 315.6691

EPHEMERIS_TYPE = 0
CLASSIFICATION_TYPE = U
NORAD_CAT_ID   = 68366
ELEMENT_SET_NO = 999
REV_AT_EPOCH   = 126
BSTAR          = .21483E-3
MEAN_MOTION_DOT = .6183E-3
MEAN_MOTION_DDOT = .1801E-6

CCSDS_OMM_VERS = 2.0
CREATION_DATE  = 
ORIGINATOR     = 

OBJECT_NAME    = RASSVET-3 OBJECT H
OBJECT_ID      = 2026-061H
CENTER_NAME    = EARTH
REF_FRAME      = TEME
TIME_SYSTEM    = UTC
MEAN_ELEMENT_THEORY = SGP/SGP4

EPOCH          = 2026-03-31T15:46:24.113856
MEAN_MOTION    = 15.88599119
ECCENTRICITY   = .0026929
INCLINATION    = 82.2970
RA_OF_ASC_NODE = 99.7109
ARG_OF_PERICENTER = 44.6140
MEAN_ANOMALY   = 315.7292

EPHEMERIS_TYPE = 0
CLASSIFICATION_TYPE = U
NORAD_CAT_ID   = 68367
ELEMENT_SET_NO = 999
REV_AT_EPOCH   = 126
BSTAR          = .22E-3
MEAN_MOTION_DOT = .63268E-3
MEAN_MOTION_DDOT = .24145E-6

